{
  "type": "FeatureCollection",
  "features": [
    {
      "type": "Feature",
      "properties": {
        "norad_id": 35159,
        "name": "FENGYUN 1C DEB",
        "group": "fengyun-1c-debris",
        "lat": -31.992536926440515,
        "lon": -118.17751978507498,
        "alt_km": 742.0949807848665,
        "timestamp": "2025-12-17T23:38:07.141416+00:00",
        "meta_object_name": "FENGYUN 1C DEB",
        "meta_object_id": "1999-025DMP",
        "meta_epoch": "2025-12-15T00:01:21.406944",
        "meta_mean_motion": 14.45184746,
        "meta_eccentricity": 0.00124562,
        "meta_inclination": 98.8398,
        "meta_ra_of_asc_node": 64.2968,
        "meta_arg_of_pericenter": 167.74,
        "meta_mean_anomaly": 9.2116,
        "meta_ephemeris_type": 0,
        "meta_classification_type": "U",
        "meta_norad_cat_id": 35159,
        "meta_element_set_no": 999,
        "meta_rev_at_epoch": 61513,
        "meta_bstar": 0.0011945775,
        "meta_mean_motion_dot": 4.142e-05,
        "meta_mean_motion_ddot": 0,
        "tle_line1": "1 35159U 99025DMP 25349.00094221  .00004142  00000+0  11946-2 0  9992",
        "tle_line2": "2 35159  98.8398  64.2968 0012456 167.7400   9.2116 14.45184746615137"
      },
      "geometry": {
        "type": "Point",
        "coordinates": [
          -118.17751978507498,
          -31.992536926440515
        ]
      }
    },
    {
      "type": "Feature",
      "properties": {
        "norad_id": 35160,
        "name": "FENGYUN 1C DEB",
        "group": "fengyun-1c-debris",
        "lat": 61.182453286140564,
        "lon": -56.214770327722654,
        "alt_km": 799.8843239192056,
        "timestamp": "2025-12-17T23:38:07.141426+00:00",
        "meta_object_name": "FENGYUN 1C DEB",
        "meta_object_id": "1999-025DMQ",
        "meta_epoch": "2025-12-16T13:37:44.190912",
        "meta_mean_motion": 14.35976797,
        "meta_eccentricity": 0.01760845,
        "meta_inclination": 99.155,
        "meta_ra_of_asc_node": 105.2355,
        "meta_arg_of_pericenter": 228.1924,
        "meta_mean_anomaly": 130.4106,
        "meta_ephemeris_type": 0,
        "meta_classification_type": "U",
        "meta_norad_cat_id": 35160,
        "meta_element_set_no": 999,
        "meta_rev_at_epoch": 64986,
        "meta_bstar": 0.00041002814,
        "meta_mean_motion_dot": 1.364e-05,
        "meta_mean_motion_ddot": 0,
        "tle_line1": "1 35160U 99025DMQ 25350.56787258  .00001364  00000+0  41003-3 0  9997",
        "tle_line2": "2 35160  99.1550 105.2355 0176084 228.1924 130.4106 14.35976797649867"
      },
      "geometry": {
        "type": "Point",
        "coordinates": [
          -56.214770327722654,
          61.182453286140564
        ]
      }
    },
    {
      "type": "Feature",
      "properties": {
        "norad_id": 35165,
        "name": "FENGYUN 1C DEB",
        "group": "fengyun-1c-debris",
        "lat": -27.398973203906305,
        "lon": -100.65195350633529,
        "alt_km": 799.3434948677541,
        "timestamp": "2025-12-17T23:38:07.141436+00:00",
        "meta_object_name": "FENGYUN 1C DEB",
        "meta_object_id": "1999-025DMV",
        "meta_epoch": "2025-11-30T05:14:00.190464",
        "meta_mean_motion": 14.33570134,
        "meta_eccentricity": 0.00218891,
        "meta_inclination": 98.8778,
        "meta_ra_of_asc_node": 65.7738,
        "meta_arg_of_pericenter": 100.7376,
        "meta_mean_anomaly": 259.6273,
        "meta_ephemeris_type": 0,
        "meta_classification_type": "U",
        "meta_norad_cat_id": 35165,
        "meta_element_set_no": 999,
        "meta_rev_at_epoch": 89541,
        "meta_bstar": 0.0024382815,
        "meta_mean_motion_dot": 6.727e-05,
        "meta_mean_motion_ddot": 0,
        "tle_line1": "1 35165U 99025DMV 25334.21805776  .00006727  00000+0  24383-2 0  9991",
        "tle_line2": "2 35165  98.8778  65.7738 0021889 100.7376 259.6273 14.33570134895419"
      },
      "geometry": {
        "type": "Point",
        "coordinates": [
          -100.65195350633529,
          -27.398973203906305
        ]
      }
    },
    {
      "type": "Feature",
      "properties": {
        "norad_id": 35167,
        "name": "FENGYUN 1C DEB",
        "group": "fengyun-1c-debris",
        "lat": -71.86811880631595,
        "lon": 12.041424316395887,
        "alt_km": 813.0052048790903,
        "timestamp": "2025-12-17T23:38:07.141446+00:00",
        "meta_object_name": "FENGYUN 1C DEB",
        "meta_object_id": "1999-025DMX",
        "meta_epoch": "2025-12-17T10:34:00.618816",
        "meta_mean_motion": 14.31170217,
        "meta_eccentricity": 0.02295554,
        "meta_inclination": 98.4494,
        "meta_ra_of_asc_node": 344.5158,
        "meta_arg_of_pericenter": 190.191,
        "meta_mean_anomaly": 169.4578,
        "meta_ephemeris_type": 0,
        "meta_classification_type": "U",
        "meta_norad_cat_id": 35167,
        "meta_element_set_no": 999,
        "meta_rev_at_epoch": 70087,
        "meta_bstar": 0.00031003088,
        "meta_mean_motion_dot": 1.043e-05,
        "meta_mean_motion_ddot": 0,
        "tle_line1": "1 35167U 99025DMX 25351.44028494  .00001043  00000+0  31003-3 0  9995",
        "tle_line2": "2 35167  98.4494 344.5158 0229555 190.1910 169.4578 14.31170217700870"
      },
      "geometry": {
        "type": "Point",
        "coordinates": [
          12.041424316395887,
          -71.86811880631595
        ]
      }
    },
    {
      "type": "Feature",
      "properties": {
        "norad_id": 35168,
        "name": "FENGYUN 1C DEB",
        "group": "fengyun-1c-debris",
        "lat": -66.46170294997656,
        "lon": -96.99211449518434,
        "alt_km": 938.7341143726762,
        "timestamp": "2025-12-17T23:38:07.141456+00:00",
        "meta_object_name": "FENGYUN 1C DEB",
        "meta_object_id": "1999-025DMY",
        "meta_epoch": "2025-12-11T11:53:15.848448",
        "meta_mean_motion": 14.15522112,
        "meta_eccentricity": 0.01260569,
        "meta_inclination": 98.2752,
        "meta_ra_of_asc_node": 237.4634,
        "meta_arg_of_pericenter": 131.2558,
        "meta_mean_anomaly": 229.9558,
        "meta_ephemeris_type": 0,
        "meta_classification_type": "U",
        "meta_norad_cat_id": 35168,
        "meta_element_set_no": 999,
        "meta_rev_at_epoch": 57906,
        "meta_bstar": 0.00034767464,
        "meta_mean_motion_dot": 6.96e-06,
        "meta_mean_motion_ddot": 0,
        "tle_line1": "1 35168U 99025DMY 25345.49532232  .00000696  00000+0  34767-3 0  9997",
        "tle_line2": "2 35168  98.2752 237.4634 0126056 131.2558 229.9558 14.15522112579063"
      },
      "geometry": {
        "type": "Point",
        "coordinates": [
          -96.99211449518434,
          -66.46170294997656
        ]
      }
    },
    {
      "type": "Feature",
      "properties": {
        "norad_id": 35169,
        "name": "FENGYUN 1C DEB",
        "group": "fengyun-1c-debris",
        "lat": 46.61060270199555,
        "lon": 65.86265667969732,
        "alt_km": 610.6314446181032,
        "timestamp": "2025-12-17T23:38:07.141466+00:00",
        "meta_object_name": "FENGYUN 1C DEB",
        "meta_object_id": "1999-025DMZ",
        "meta_epoch": "2025-12-13T21:54:45.837792",
        "meta_mean_motion": 14.5866776,
        "meta_eccentricity": 0.01527117,
        "meta_inclination": 99.1288,
        "meta_ra_of_asc_node": 231.5975,
        "meta_arg_of_pericenter": 104.1831,
        "meta_mean_anomaly": 257.6385,
        "meta_ephemeris_type": 0,
        "meta_classification_type": "U",
        "meta_norad_cat_id": 35169,
        "meta_element_set_no": 999,
        "meta_rev_at_epoch": 65797,
        "meta_bstar": 0.00059843273,
        "meta_mean_motion_dot": 3.218e-05,
        "meta_mean_motion_ddot": 0,
        "tle_line1": "1 35169U 99025DMZ 25347.91303053  .00003218  00000+0  59843-3 0  9999",
        "tle_line2": "2 35169  99.1288 231.5975 0152711 104.1831 257.6385 14.58667760657970"
      },
      "geometry": {
        "type": "Point",
        "coordinates": [
          65.86265667969732,
          46.61060270199555
        ]
      }
    },
    {
      "type": "Feature",
      "properties": {
        "norad_id": 35171,
        "name": "FENGYUN 1C DEB",
        "group": "fengyun-1c-debris",
        "lat": 73.38559291980833,
        "lon": 111.1156278438843,
        "alt_km": 970.3815024442347,
        "timestamp": "2025-12-17T23:38:07.141477+00:00",
        "meta_object_name": "FENGYUN 1C DEB",
        "meta_object_id": "1999-025DNB",
        "meta_epoch": "2025-12-17T09:30:03.353760",
        "meta_mean_motion": 13.94986584,
        "meta_eccentricity": 0.01380992,
        "meta_inclination": 99.0076,
        "meta_ra_of_asc_node": 142.6534,
        "meta_arg_of_pericenter": 305.8808,
        "meta_mean_anomaly": 52.9596,
        "meta_ephemeris_type": 0,
        "meta_classification_type": "U",
        "meta_norad_cat_id": 35171,
        "meta_element_set_no": 999,
        "meta_rev_at_epoch": 88623,
        "meta_bstar": 0.001379099,
        "meta_mean_motion_dot": 1.965e-05,
        "meta_mean_motion_ddot": 0,
        "tle_line1": "1 35171U 99025DNB 25351.39587215  .00001965  00000+0  13791-2 0  9991",
        "tle_line2": "2 35171  99.0076 142.6534 0138099 305.8808  52.9596 13.94986584886237"
      },
      "geometry": {
        "type": "Point",
        "coordinates": [
          111.1156278438843,
          73.38559291980833
        ]
      }
    }
  ]
}